NORAD_CAT_ID,OBJECT_NAME,OBJECT_TYPE,EPOCH,MEAN_MOTION,ECCENTRICITY,INCLINATION,RA_OF_ASC_NODE,ARG_OF_PERICENTER,MEAN_ANOMALY,BSTAR,MEAN_MOTION_DOT,MEAN_MOTION_DDOT,TLE_LINE0,TLE_LINE1,TLE_LINE2,SEMIMAJOR_AXIS,PERIOD,APOGEE,PERIGEE,DECAYED
53293.0,STARLINK-4148,PAYLOAD,2022-12-22 04:15:40,15.08833241,0.0001853,53.2177,42.2199,41.3244,318.7888,-0.00017426,-3.06e-05,0.0,0 STARLINK-4148,1 53293U 22086BD  22356.17754853 -.00003060  00000-0 -17426-3 0  9992,2 53293  53.2177  42.2199 0001853  41.3244 318.7888 15.08833241 24005,6917.901,95.438,541.048,538.484,0.0
53293.0,STARLINK-4148,PAYLOAD,2022-12-22 12:12:35,15.08839124,0.0001876,53.2178,40.7335,44.3641,315.7501,-7.2847e-05,-1.447e-05,0.0,0 STARLINK-4148,1 53293U 22086BD  22356.50874191 -.00001447  00000-0 -72847-4 0  9993,2 53293  53.2178  40.7335 0001876  44.3641 315.7501 15.08839124 24050,6917.8830000000025,95.438,541.0459999999998,538.45,0.0
53293.0,STARLINK-4148,PAYLOAD,2022-12-23 08:52:36,15.08824062,0.0001938,53.2178,36.8678,43.178,316.9364,0.00017869,2.556e-05,0.0,0 STARLINK-4148,1 53293U 22086BD  22357.36986622  .00002556  00000-0  17869-3 0  9993,2 53293  53.2178  36.8678 0001938  43.1780 316.9364 15.08824062 24343,6917.929,95.439,541.135,538.453,0.0
53293.0,STARLINK-4148,PAYLOAD,2022-12-23 12:03:22,15.08823612,0.0001971,53.2181,36.2734,43.378,316.7367,0.0001663,2.358e-05,0.0,0 STARLINK-4148,1 53293U 22086BD  22357.50234828  .00002358  00000-0  16630-3 0  9998,2 53293  53.2181  36.2734 0001971  43.3780 316.7367 15.08823612 24209,6917.93,95.439,541.159,538.432,0.0
53293.0,STARLINK-4148,PAYLOAD,2022-12-23 20:00:19,15.08821799,0.0001984,53.2179,34.7877,45.2709,314.8444,0.00014614,2.037e-05,0.0,0 STARLINK-4148,1 53293U 22086BD  22357.83355340  .00002037  00000-0  14614-3 0  9991,2 53293  53.2179  34.7877 0001984  45.2709 314.8444 15.08821799 24415,6917.936,95.439,541.174,538.429,0.0
53293.0,STARLINK-4148,PAYLOAD,2022-12-24 11:54:09,15.08843202,0.0001916,53.2182,31.8123,44.3583,315.7562,6.6492e-05,7.699999999999999e-06,0.0,0 STARLINK-4148,1 53293U 22086BD  22358.49594374  .00000770  00000-0  66492-4 0  9990,2 53293  53.2182  31.8123 0001916  44.3583 315.7562 15.08843202 24353,6917.871,95.437,541.061,538.41,0.0
53293.0,STARLINK-4148,PAYLOAD,2022-12-24 15:04:55,15.08841194,0.0001992,53.2174,31.2193,42.0856,318.0288,4.8989e-05,4.92e-06,0.0,0 STARLINK-4148,1 53293U 22086BD  22358.62842539  .00000492  00000-0  48989-4 0  9996,2 53293  53.2174  31.2193 0001992  42.0856 318.0288 15.08841194 24536,6917.877,95.437,541.12,538.364,0.0
53293.0,STARLINK-4148,PAYLOAD,2022-12-25 11:44:56,15.08840601,0.0001921,53.218,27.3527,44.7775,315.3371,-1.2692e-05,-4.9000000000000005e-06,0.0,0 STARLINK-4148,1 53293U 22086BD  22359.48954698 -.00000490  00000-0 -12692-4 0  9993,2 53293  53.2180  27.3527 0001921  44.7775 315.3371 15.08840601 24503,6917.879,95.438,541.072,538.415,0.0
53293.0,STARLINK-4148,PAYLOAD,2022-12-25 19:41:52,15.08836207,0.0001993,53.2182,25.8659,44.8858,315.2295,6.4794e-06,-1.85e-06,0.0,0 STARLINK-4148,1 53293U 22086BD  22359.82074891 -.00000185  00000-0  64794-5 0  9990,2 53293  53.2182  25.8659 0001993  44.8858 315.2295 15.08836207 24710,6917.892,95.438,541.136,538.378,0.0
53293.0,STARLINK-4148,PAYLOAD,2022-12-26 11:35:43,15.08841602,0.0001981,53.2179,22.8923,46.2919,313.8237,-4.8478e-05,-1.06e-05,0.0,0 STARLINK-4148,1 53293U 22086BD  22360.48314745 -.00001060  00000-0 -48478-4 0  9993,2 53293  53.2179  22.8923 0001981  46.2919 313.8237 15.08841602 24814,6917.875,95.437,541.111,538.37,0.0
53293.0,STARLINK-4148,PAYLOAD,2022-12-27 01:54:12,15.08835344,0.000198,53.2182,20.216,46.2403,313.8753,-3.2381e-05,-8.03e-06,0.0,0 STARLINK-4148,1 53293U 22086BD  22361.07931129 -.00000803  00000-0 -32381-4 0  9990,2 53293  53.2182  20.2160 0001980  46.2403 313.8753 15.08835344 24741,6917.895,95.438,541.129,538.39,0.0
53293.0,STARLINK-4148,PAYLOAD,2022-12-27 11:26:30,15.08846517,0.0001995,53.2176,18.432,45.8697,314.2459,8.413700000000001e-05,1.051e-05,0.0,0 STARLINK-4148,1 53293U 22086BD  22361.47673943  .00001051  00000-0  84137-4 0  9991,2 53293  53.2176  18.4320 0001995  45.8697 314.2459 15.08846517 24806,6917.86,95.437,541.106,538.345,0.0
53293.0,STARLINK-4148,PAYLOAD,2022-12-27 17:48:02,15.08846259,0.0002015,53.2174,17.2428,45.5818,314.5339,7.1705e-05,8.53e-06,0.0,0 STARLINK-4148,1 53293U 22086BD  22361.74169890  .00000853  00000-0  71705-4 0  9998,2 53293  53.2174  17.2428 0002015  45.5818 314.5339 15.08846259 25002,6917.861,95.437,541.12,538.332,0.0
53293.0,STARLINK-4148,PAYLOAD,2022-12-28 00:09:34,15.08851525,0.0002036,53.218,16.0523,44.0794,316.036,0.00010376,1.364e-05,0.0,0 STARLINK-4148,1 53293U 22086BD  22362.00665285  .00001364  00000-0  10376-3 0  9991,2 53293  53.2180  16.0523 0002036  44.0794 316.0360 15.08851525 25049,6917.845,95.437,541.119,538.302,0.0
53293.0,STARLINK-4148,PAYLOAD,2022-12-29 11:08:06,15.08822534,0.0002000999999999,53.219,9.5098,38.9453,321.1683,-5.3252e-05,-1.135e-05,0.0,0 STARLINK-4148,1 53293U 22086BD  22363.46395949 -.00001135  00000-0 -53252-4 0  9998,2 53293  53.2190   9.5098 0002001  38.9453 321.1683 15.08822534 25100,6917.934,95.439,541.183,538.414,0.0
53293.0,STARLINK-4148,PAYLOAD,2022-12-30 04:37:20,15.08830658,0.0001798,53.2188,6.2394,31.7527,328.3573,-9.6576e-05,-1.824e-05,0.0,0 STARLINK-4148,1 53293U 22086BD  22364.19259934 -.00001824  00000-0 -96576-4 0  9993,2 53293  53.2188   6.2394 0001798  31.7527 328.3573 15.08830658 25210,6917.909000000002,95.438,541.018,538.53,0.0
53293.0,STARLINK-4148,PAYLOAD,2022-12-30 09:23:29,15.08834924,0.000179,53.2173,5.3481,45.441,314.6728,2.0738e-05,4.2e-07,0.0,0 STARLINK-4148,1 53293U 22086BD  22364.39131327  .00000042  00000-0  20738-4 0  9996,2 53293  53.2173   5.3481 0001790  45.4410 314.6728 15.08834924 25249,6917.896,95.438,540.999,538.523,0.0
53293.0,STARLINK-4148,PAYLOAD,2022-12-30 17:20:24,15.08842575,0.0001874,53.2171,3.8617,41.6335,318.48,0.00014734,2.058e-05,0.0,0 STARLINK-4148,1 53293U 22086BD  22364.72250471  .00002058  00000-0  14734-3 0  9992,2 53293  53.2171   3.8617 0001874  41.6335 318.4800 15.08842575 25297,6917.873000000001,95.437,541.034,538.441,0.0
53293.0,STARLINK-4148,PAYLOAD,2022-12-31 09:14:15,15.08844755,0.0001939,53.2182,0.8876,40.6627,319.451,0.00020673,3.004e-05,0.0,0 STARLINK-4148,1 53293U 22086BD  22365.38489782  .00003004  00000-0  20673-3 0  9995,2 53293  53.2182   0.8876 0001939  40.6627 319.4510 15.08844755 25558,6917.866,95.437,541.072,538.389,0.0
53293.0,STARLINK-4148,PAYLOAD,2022-12-31 17:11:11,15.0883479,0.000204,53.2177,359.4003,42.5649,317.5501,0.00013698,1.892e-05,0.0,0 STARLINK-4148,1 53293U 22086BD  22365.71610598  .00001892  00000-0  13698-3 0  9995,2 53293  53.2177 359.4003 0002040  42.5649 317.5501 15.08834790 25441,6917.896,95.438,541.173,538.35,0.0
53293.0,STARLINK-4148,PAYLOAD,2023-01-01 09:05:04,15.08830087,0.000197,53.2197,356.4265,41.1576,318.9564,-0.00010539,-1.965e-05,0.0,0 STARLINK-4148,1 53293U 22086BD  23001.37851898 -.00001965  00000-0 -10539-3 0  9999,2 53293  53.2197 356.4265 0001970  41.1576 318.9564 15.08830087 25545,6917.911,95.438,541.139,538.413,0.0
53293.0,STARLINK-4148,PAYLOAD,2023-01-01 17:01:59,15.08830209,0.0001935,53.2178,354.9406,40.7331,319.3805,-0.00014592,-2.609e-05,0.0,0 STARLINK-4148,1 53293U 22086BD  23001.70972148 -.00002609  00000-0 -14592-3 0  9997,2 53293  53.2178 354.9406 0001935  40.7331 319.3805 15.08830209 25751,6917.91,95.438,541.114,538.437,0.0
53293.0,STARLINK-4148,PAYLOAD,2023-01-02 05:45:04,15.08840062,0.0001751,53.2182,352.5608,30.7743,329.3351,-0.00020631,-3.5700000000000014e-05,0.0,0 STARLINK-4148,1 53293U 22086BD  23002.23963588 -.00003570  00000-0 -20631-3 0  9993,2 53293  53.2182 352.5608 0001751  30.7743 329.3351 15.08840062 25672,6917.88,95.438,540.957,538.534,0.0
53293.0,STARLINK-4148,PAYLOAD,2023-01-02 10:31:12,15.08850862,0.0002026999999999,53.2184,351.6695,43.9697,316.1456,-1.3925999999999992e-05,-5.1e-06,0.0,0 STARLINK-4148,1 53293U 22086BD  23002.43834198 -.00000510  00000-0 -13926-4 0  9990,2 53293  53.2184 351.6695 0002027  43.9697 316.1456 15.08850862 25704,6917.847,95.437,541.114,538.31,0.0
53293.0,STARLINK-4148,PAYLOAD,2023-01-02 23:14:18,15.08831377,0.0001939,53.2188,349.2887,47.422,312.6935,3.0417e-05,1.96e-06,0.0,0 STARLINK-4148,1 53293U 22086BD  23002.96827203  .00000196  00000-0  30417-4 0  9999,2 53293  53.2188 349.2887 0001939  47.4220 312.6935 15.08831377 25787,6917.906999999997,95.438,541.113,538.43,0.0
53293.0,STARLINK-4148,PAYLOAD,2023-01-03 10:22:01,15.08827012,0.0001902,53.2194,347.2071,45.2718,314.8429,5.6641e-05,6.13e-06,0.0,0 STARLINK-4148,1 53293U 22086BD  23003.43195657  .00000613  00000-0  56641-4 0  9994,2 53293  53.2194 347.2071 0001902  45.2718 314.8429 15.08827012 26015,6917.92,95.438,541.101,538.469,0.0
53293.0,STARLINK-4148,PAYLOAD,2023-01-04 10:12:47,15.08841179,0.0001991,53.2183,342.7482,43.1142,317.0006,9.6824e-06,-1.34e-06,0.0,0 STARLINK-4148,1 53293U 22086BD  23004.42555369 -.00000134  00000-0  96824-5 0  9991,2 53293  53.2183 342.7482 0001991  43.1142 317.0006 15.08841179 26000,6917.877,95.437,541.119,538.364,0.0
53293.0,STARLINK-4148,PAYLOAD,2023-01-04 21:20:29,15.08840834,0.0001963,53.218,340.6669,43.9424,316.1724,4.4143e-05,4.14e-06,0.0,0 STARLINK-4148,1 53293U 22086BD  23004.88923189  .00000414  00000-0  44143-4 0  9996,2 53293  53.2180 340.6669 0001963  43.9424 316.1724 15.08840834 26230,6917.878000000002,95.438,541.101,538.385,0.0
53293.0,STARLINK-4148,PAYLOAD,2023-01-05 06:52:47,15.08847664,0.0001996,53.2197,338.8815,38.2368,321.8766,0.00011828,1.595e-05,0.0,0 STARLINK-4148,1 53293U 22086BD  23005.28666197  .00001595  00000-0  11828-3 0  9998,2 53293  53.2197 338.8815 0001996  38.2368 321.8766 15.08847664 26136,6917.857,95.437,541.1030000000002,538.341,0.0
